[{"OBJECT_NAME":"LANDSAT 8","OBJECT_ID":"2013-008A","EPOCH":"2026-04-01T11:00:14.508864","MEAN_MOTION":14.57131451,"ECCENTRICITY":0.000119,"INCLINATION":98.1879,"RA_OF_ASC_NODE":162.806,"ARG_OF_PERICENTER":95.5156,"MEAN_ANOMALY":264.6179,"EPHEMERIS_TYPE":0,"CLASSIFICATION_TYPE":"U","NORAD_CAT_ID":39084,"ELEMENT_SET_NO":999,"REV_AT_EPOCH":68672,"BSTAR":9.6205e-5,"MEAN_MOTION_DOT":3.89e-6,"MEAN_MOTION_DDOT":0},{"OBJECT_NAME":"SARAL","OBJECT_ID":"2013-009A","EPOCH":"2026-04-01T12:08:35.882304","MEAN_MOTION":14.3283613,"ECCENTRICITY":0.0002605,"INCLINATION":98.5564,"RA_OF_ASC_NODE":279.0379,"ARG_OF_PERICENTER":128.7033,"MEAN_ANOMALY":231.4384,"EPHEMERIS_TYPE":0,"CLASSIFICATION_TYPE":"U","NORAD_CAT_ID":39086,"ELEMENT_SET_NO":999,"REV_AT_EPOCH":68462,"BSTAR":7.3466e-5,"MEAN_MOTION_DOT":1.57e-6,"MEAN_MOTION_DDOT":0},{"OBJECT_NAME":"GAOFEN-1","OBJECT_ID":"2013-018A","EPOCH":"2026-04-01T11:39:41.830848","MEAN_MOTION":14.76520433,"ECCENTRICITY":0.0017896,"INCLINATION":97.9144,"RA_OF_ASC_NODE":165.0969,"ARG_OF_PERICENTER":149.2659,"MEAN_ANOMALY":210.9603,"EPHEMERIS_TYPE":0,"CLASSIFICATION_TYPE":"U","NORAD_CAT_ID":39150,"ELEMENT_SET_NO":999,"REV_AT_EPOCH":69692,"BSTAR":0.00011294,"MEAN_MOTION_DOT":7.38e-6,"MEAN_MOTION_DDOT":0},{"OBJECT_NAME":"VNREDSAT 1","OBJECT_ID":"2013-021B","EPOCH":"2026-04-01T12:26:04.608960","MEAN_MOTION":14.64922321,"ECCENTRICITY":0.0001409,"INCLINATION":97.9171,"RA_OF_ASC_NODE":147.8443,"ARG_OF_PERICENTER":82.0162,"MEAN_ANOMALY":278.1201,"EPHEMERIS_TYPE":0,"CLASSIFICATION_TYPE":"U","NORAD_CAT_ID":39160,"ELEMENT_SET_NO":999,"REV_AT_EPOCH":68906,"BSTAR":0.00012364,"MEAN_MOTION_DOT":6.16e-6,"MEAN_MOTION_DDOT":0},{"OBJECT_NAME":"ARIRANG-5 (KOMPSAT-5)","OBJECT_ID":"2013-042A","EPOCH":"2026-04-01T11:33:58.934304","MEAN_MOTION":15.04489874,"ECCENTRICITY":0.0004697,"INCLINATION":97.6193,"RA_OF_ASC_NODE":279.2515,"ARG_OF_PERICENTER":53.5866,"MEAN_ANOMALY":306.5793,"EPHEMERIS_TYPE":0,"CLASSIFICATION_TYPE":"U","NORAD_CAT_ID":39227,"ELEMENT_SET_NO":999,"REV_AT_EPOCH":69232,"BSTAR":0.00017243,"MEAN_MOTION_DOT":2.353e-5,"MEAN_MOTION_DDOT":0},{"OBJECT_NAME":"SKYSAT-A","OBJECT_ID":"2013-066C","EPOCH":"2026-04-01T03:07:23.783232","MEAN_MOTION":15.12518089,"ECCENTRICITY":0.0020649,"INCLINATION":97.3906,"RA_OF_ASC_NODE":142.9733,"ARG_OF_PERICENTER":217.1018,"MEAN_ANOMALY":142.8787,"EPHEMERIS_TYPE":0,"CLASSIFICATION_TYPE":"U","NORAD_CAT_ID":39418,"ELEMENT_SET_NO":999,"REV_AT_EPOCH":67683,"BSTAR":0.00024352,"MEAN_MOTION_DOT":4.199e-5,"MEAN_MOTION_DDOT":0},{"OBJECT_NAME":"DUBAISAT-2","OBJECT_ID":"2013-066D","EPOCH":"2026-04-01T12:38:49.794144","MEAN_MOTION":15.09598364,"ECCENTRICITY":0.0009825,"INCLINATION":97.4537,"RA_OF_ASC_NODE":83.7242,"ARG_OF_PERICENTER":302.3429,"MEAN_ANOMALY":57.6849,"EPHEMERIS_TYPE":0,"CLASSIFICATION_TYPE":"U","NORAD_CAT_ID":39419,"ELEMENT_SET_NO":999,"REV_AT_EPOCH":67482,"BSTAR":0.00037444,"MEAN_MOTION_DOT":5.962e-5,"MEAN_MOTION_DDOT":0},{"OBJECT_NAME":"GPM-CORE","OBJECT_ID":"2014-009C","EPOCH":"2026-04-01T11:54:22.684896","MEAN_MOTION":15.4524274,"ECCENTRICITY":0.0012484,"INCLINATION":64.9739,"RA_OF_ASC_NODE":205.067,"ARG_OF_PERICENTER":274.1402,"MEAN_ANOMALY":85.8312,"EPHEMERIS_TYPE":0,"CLASSIFICATION_TYPE":"U","NORAD_CAT_ID":39574,"ELEMENT_SET_NO":999,"REV_AT_EPOCH":68596,"BSTAR":0.00034541,"MEAN_MOTION_DOT":0.00016342,"MEAN_MOTION_DDOT":0},{"OBJECT_NAME":"SENTINEL-1A","OBJECT_ID":"2014-016A","EPOCH":"2026-04-01T15:15:58.110336","MEAN_MOTION":14.59196944,"ECCENTRICITY":0.0001339,"INCLINATION":98.1817,"RA_OF_ASC_NODE":100.278,"ARG_OF_PERICENTER":90.9657,"MEAN_ANOMALY":269.1696,"EPHEMERIS_TYPE":0,"CLASSIFICATION_TYPE":"U","NORAD_CAT_ID":39634,"ELEMENT_SET_NO":999,"REV_AT_EPOCH":63885,"BSTAR":6.1223e-5,"MEAN_MOTION_DOT":2.43e-6,"MEAN_MOTION_DDOT":0},{"OBJECT_NAME":"KAZEOSAT 1","OBJECT_ID":"2014-024A","EPOCH":"2026-04-01T11:45:02.616768","MEAN_MOTION":14.4204747,"ECCENTRICITY":0.0001096,"INCLINATION":98.3251,"RA_OF_ASC_NODE":165.8317,"ARG_OF_PERICENTER":101.0393,"MEAN_ANOMALY":259.092,"EPHEMERIS_TYPE":0,"CLASSIFICATION_TYPE":"U","NORAD_CAT_ID":39731,"ELEMENT_SET_NO":999,"REV_AT_EPOCH":62750,"BSTAR":5.6943e-5,"MEAN_MOTION_DOT":1.44e-6,"MEAN_MOTION_DDOT":0},{"OBJECT_NAME":"ALOS-2","OBJECT_ID":"2014-029A","EPOCH":"2026-04-01T12:15:52.864128","MEAN_MOTION":14.79465242,"ECCENTRICITY":0.0002009,"INCLINATION":97.9198,"RA_OF_ASC_NODE":189.777,"ARG_OF_PERICENTER":100.9975,"MEAN_ANOMALY":259.1463,"EPHEMERIS_TYPE":0,"CLASSIFICATION_TYPE":"U","NORAD_CAT_ID":39766,"ELEMENT_SET_NO":999,"REV_AT_EPOCH":64024,"BSTAR":0.00032822,"MEAN_MOTION_DOT":2.4e-5,"MEAN_MOTION_DDOT":0},{"OBJECT_NAME":"KAZEOSAT 2","OBJECT_ID":"2014-033A","EPOCH":"2026-04-01T12:06:04.055040","MEAN_MOTION":14.85373416,"ECCENTRICITY":0.000779,"INCLINATION":97.547,"RA_OF_ASC_NODE":295.1426,"ARG_OF_PERICENTER":203.9907,"MEAN_ANOMALY":156.0946,"EPHEMERIS_TYPE":0,"CLASSIFICATION_TYPE":"U","NORAD_CAT_ID":40010,"ELEMENT_SET_NO":999,"REV_AT_EPOCH":63757,"BSTAR":8.5899e-5,"MEAN_MOTION_DOT":6.89e-6,"MEAN_MOTION_DDOT":0},{"OBJECT_NAME":"HODOYOSHI-4","OBJECT_ID":"2014-033B","EPOCH":"2026-04-01T12:14:20.755680","MEAN_MOTION":14.87926981,"ECCENTRICITY":0.0023207,"INCLINATION":97.5453,"RA_OF_ASC_NODE":280.0388,"ARG_OF_PERICENTER":196.6765,"MEAN_ANOMALY":163.3692,"EPHEMERIS_TYPE":0,"CLASSIFICATION_TYPE":"U","NORAD_CAT_ID":40011,"ELEMENT_SET_NO":999,"REV_AT_EPOCH":63740,"BSTAR":0.00021482,"MEAN_MOTION_DOT":1.925e-5,"MEAN_MOTION_DDOT":0},{"OBJECT_NAME":"DEIMOS-2","OBJECT_ID":"2014-033D","EPOCH":"2026-04-01T11:25:18.381216","MEAN_MOTION":14.93500435,"ECCENTRICITY":0.0001325,"INCLINATION":97.5947,"RA_OF_ASC_NODE":328.624,"ARG_OF_PERICENTER":110.2408,"MEAN_ANOMALY":249.8955,"EPHEMERIS_TYPE":0,"CLASSIFICATION_TYPE":"U","NORAD_CAT_ID":40013,"ELEMENT_SET_NO":999,"REV_AT_EPOCH":62627,"BSTAR":0.00021988,"MEAN_MOTION_DOT":2.26e-5,"MEAN_MOTION_DDOT":0},{"OBJECT_NAME":"HODOYOSHI-3","OBJECT_ID":"2014-033F","EPOCH":"2026-04-01T10:52:17.219712","MEAN_MOTION":14.85203011,"ECCENTRICITY":0.0031669,"INCLINATION":97.6337,"RA_OF_ASC_NODE":257.6218,"ARG_OF_PERICENTER":246.2858,"MEAN_ANOMALY":113.5034,"EPHEMERIS_TYPE":0,"CLASSIFICATION_TYPE":"U","NORAD_CAT_ID":40015,"ELEMENT_SET_NO":999,"REV_AT_EPOCH":63623,"BSTAR":0.00018318,"MEAN_MOTION_DOT":1.531e-5,"MEAN_MOTION_DDOT":0},{"OBJECT_NAME":"SPOT 7","OBJECT_ID":"2014-034A","EPOCH":"2026-04-01T11:19:45.909696","MEAN_MOTION":14.6088788,"ECCENTRICITY":0.0001623,"INCLINATION":98.0704,"RA_OF_ASC_NODE":155.9195,"ARG_OF_PERICENTER":93.6238,"MEAN_ANOMALY":266.5148,"EPHEMERIS_TYPE":0,"CLASSIFICATION_TYPE":"U","NORAD_CAT_ID":40053,"ELEMENT_SET_NO":999,"REV_AT_EPOCH":62593,"BSTAR":0.00011416,"MEAN_MOTION_DOT":5.13e-6,"MEAN_MOTION_DDOT":0},{"OBJECT_NAME":"SKYSAT-B","OBJECT_ID":"2014-037D","EPOCH":"2026-04-01T09:28:17.094720","MEAN_MOTION":14.87811412,"ECCENTRICITY":0.0006019,"INCLINATION":98.3763,"RA_OF_ASC_NODE":46.029,"ARG_OF_PERICENTER":154.2879,"MEAN_ANOMALY":205.8636,"EPHEMERIS_TYPE":0,"CLASSIFICATION_TYPE":"U","NORAD_CAT_ID":40072,"ELEMENT_SET_NO":999,"REV_AT_EPOCH":63454,"BSTAR":0.0001839,"MEAN_MOTION_DOT":1.619e-5,"MEAN_MOTION_DDOT":0}]
