LANDSAT 8               
1 39084U 13008A   26091.45850126  .00000389  00000+0  96205-4 0  9990
2 39084  98.1879 162.8060 0001190  95.5156 264.6179 14.57131451686729
SARAL                   
1 39086U 13009A   26091.50597086  .00000157  00000+0  73466-4 0  9999
2 39086  98.5564 279.0379 0002605 128.7033 231.4384 14.32836130684621
GAOFEN-1                
1 39150U 13018A   26091.48590082  .00000738  00000+0  11294-3 0  9992
2 39150  97.9144 165.0969 0017896 149.2659 210.9603 14.76520433696925
VNREDSAT 1              
1 39160U 13021B   26091.51810890  .00000616  00000+0  12364-3 0  9997
2 39160  97.9171 147.8443 0001409  82.0162 278.1201 14.64922321689063
ARIRANG-5 (KOMPSAT-5)   
1 39227U 13042A   26091.48193211  .00002353  00000+0  17243-3 0  9992
2 39227  97.6193 279.2515 0004697  53.5866 306.5793 15.04489874692325
SKYSAT-A                
1 39418U 13066C   26091.13013638  .00004199  00000+0  24352-3 0  9995
2 39418  97.3906 142.9733 0020649 217.1018 142.8787 15.12518089676838
DUBAISAT-2              
1 39419U 13066D   26091.52696521  .00005962  00000+0  37444-3 0  9992
2 39419  97.4537  83.7242 0009825 302.3429  57.6849 15.09598364674822
GPM-CORE                
1 39574U 14009C   26091.49609589  .00016342  00000+0  34541-3 0  9995
2 39574  64.9739 205.0670 0012484 274.1402  85.8312 15.45242740685962
SENTINEL-1A             
1 39634U 14016A   26091.63608924  .00000243  00000+0  61223-4 0  9999
2 39634  98.1817 100.2780 0001339  90.9657 269.1696 14.59196944638852
KAZEOSAT 1              
1 39731U 14024A   26091.48961362  .00000144  00000+0  56943-4 0  9990
2 39731  98.3251 165.8317 0001096 101.0393 259.0920 14.42047470627507
ALOS-2                  
1 39766U 14029A   26091.51102852  .00002400  00000+0  32822-3 0  9994
2 39766  97.9198 189.7770 0002009 100.9975 259.1463 14.79465242640247
KAZEOSAT 2              
1 40010U 14033A   26091.50421360  .00000689  00000+0  85899-4 0  9990
2 40010  97.5470 295.1426 0007790 203.9907 156.0946 14.85373416637572
HODOYOSHI-4             
1 40011U 14033B   26091.50996245  .00001925  00000+0  21482-3 0  9991
2 40011  97.5453 280.0388 0023207 196.6765 163.3692 14.87926981637409
DEIMOS-2                
1 40013U 14033D   26091.47590719  .00002260  00000+0  21988-3 0  9999
2 40013  97.5947 328.6240 0001325 110.2408 249.8955 14.93500435626272
HODOYOSHI-3             
1 40015U 14033F   26091.45297708  .00001531  00000+0  18318-3 0  9994
2 40015  97.6337 257.6218 0031669 246.2858 113.5034 14.85203011636230
SPOT 7                  
1 40053U 14034A   26091.47205914  .00000513  00000+0  11416-3 0  9998
2 40053  98.0704 155.9195 0001623  93.6238 266.5148 14.60887880625937
SKYSAT-B                
1 40072U 14037D   26091.39464230  .00001619  00000+0  18390-3 0  9997
2 40072  98.3763  46.0290 0006019 154.2879 205.8636 14.87811412634543
